YAM-7                   
1 60504U 24149AN  26068.71799904  .00009009  00000+0  30984-3 0  9997
2 60504  97.3828 149.4631 0001973 296.5121  63.5918 15.30304554 86835
STARLINK-34329          
1 64256U 25120A   26068.52652309  .00022982  00000+0  78591-3 0  9992
2 64256  53.1588 117.2785 0001206  91.5145 268.5994 15.30190316 43908
